IRIDIUM 39              
1 25042U 97069D   25274.24979058  .00001493  00000+0  38512-3 0  9996
2 25042  86.3974 165.7065 0016426 318.5211  41.4745 14.49359905464325
IRIDIUM 38              
1 25043U 97069E   25273.85727275  .00000997  00000+0  32212-3 0  9994
2 25043  86.4030 188.7312 0004030  97.2159 262.9497 14.38214834461140
IRIDIUM 42              
1 25077U 97077A   25274.48103444  .00001157  00000+0  38828-3 0  9994
2 25077  86.4032 194.7620 0002831  95.9705 264.1815 14.36445725456456
IRIDIUM 44              
1 25078U 97077B   25274.28746637  .00001061  00000+0  32866-3 0  9990
2 25078  86.4033 176.5128 0003764  63.8416 296.3170 14.40339747458979
IRIDIUM 45              
1 25104U 97082A   25273.82548333  .00042429  00000+0  13708-2 0  9994
2 25104  86.3617 356.4576 0105620 294.9249  64.1050 15.26581758468130
IRIDIUM 24              
1 25105U 97082B   25274.40114419  .00001448  00000+0  43333-3 0  9998
2 25105  86.3932  35.2202 0013464  88.0142 272.2600 14.42216525458526
IRIDIUM 51              
1 25262U 98018A   25274.24137836  .00112643  00000+0  18714-2 0  9996
2 25262  86.3847   3.0239 0071604 199.5884 160.2622 15.48784693463382
IRIDIUM 57              
1 25273U 98019B   25274.44262705  .00000800  00000+0  26894-3 0  9995
2 25273  86.3903 100.7258 0002229  89.2756 270.8696 14.35964861440031
